COMMENT,ORIGINATOR,NORAD_CAT_ID,OBJECT_NAME,OBJECT_TYPE,CLASSIFICATION_TYPE,INTLDES,EPOCH,EPOCH_MICROSECONDS,MEAN_MOTION,ECCENTRICITY,INCLINATION,RA_OF_ASC_NODE,ARG_OF_PERICENTER,MEAN_ANOMALY,EPHEMERIS_TYPE,ELEMENT_SET_NO,REV_AT_EPOCH,BSTAR,MEAN_MOTION_DOT,MEAN_MOTION_DDOT,FILE,TLE_LINE0,TLE_LINE1,TLE_LINE2,OBJECT_ID,OBJECT_NUMBER,SEMIMAJOR_AXIS,PERIOD,APOGEE,PERIGEE,DECAYED
"GENERATED VIA SPACETRACK.ORG API","18 SPCS","51110","STARLINK-3344","PAYLOAD","U","22005G","2022-05-21 06:00:00","999648","15.08839794","0.0001876","53.2212","42.057","42.4519","347.2165","0","999","130","-0.0004101","-0.00006809","0","3456458","0 STARLINK-3344","1 51110U 22005G   22141.25001157 -.00006809  00000-0 -41010-3 0  9992","2 51110  53.2212  42.0570 0001876  42.4519 347.2165 15.08839794  1306","2022-005G","51110","6917.881","95.438","541.044","538.448","0"
"GENERATED VIA SPACETRACK.ORG API","18 SPCS","51110","STARLINK-3344","PAYLOAD","U","22005G","2022-05-21 14:00:01","999872","15.08813917","0.0001886","53.218","40.5639","48.8696","352.4353","0","999","130","0.0023525","0.00037324","0","3457102","0 STARLINK-3344","1 51110U 22005G   22141.58335648  .00037324  00000-0  23525-2 0  9997","2 51110  53.2180  40.5639 0001886  48.8696 352.4353 15.08813917  1302","2022-005G","51110","6917.960","95.439","541.130","538.520","0"
"GENERATED VIA SPACETRACK.ORG API","18 SPCS","51110","STARLINK-3344","PAYLOAD","U","22005G","2022-05-21 22:00:00","999936","15.08857359","0.0001792","53.2216","39.064","44.9871","7.8843","0","999","130","-0.0029258","-0.00046574","0","3457577","0 STARLINK-3344","1 51110U 22005G   22141.91667824 -.00046574  00000-0 -29258-2 0  9996","2 51110  53.2216  39.0640 0001792  44.9871   7.8843 15.08857359  1308","2022-005G","51110","6917.827","95.436","540.932","538.453","0"
"GENERATED VIA SPACETRACK.ORG API","18 SPCS","51110","STARLINK-3344","PAYLOAD","U","22005G","2022-05-22 14:00:01","224","15.08829717","0.0001826","53.2206","36.0708","45.8356","30.2491","0","999","2059","0.0010611","0.00016635","0","3458389","0 STARLINK-3344","1 51110U 22005G   22142.58334491  .00016635  00000-0  10611-2 0  9997","2 51110  53.2206  36.0708 0001826  45.8356  30.2491 15.08829717 20593","2022-005G","51110","6917.912","95.438","541.040","538.514","0"
"GENERATED VIA SPACETRACK.ORG API","18 SPCS","51110","STARLINK-3344","PAYLOAD","U","22005G","2022-05-22 22:00:01","999584","15.08858529","0.0001945","53.222","34.5751","42.5131","45.2259","0","999","130","-0.0022065","-0.00035252","0","3459268","0 STARLINK-3344","1 51110U 22005G   22142.91668981 -.00035252  00000-0 -22065-2 0  9992","2 51110  53.2220  34.5751 0001945  42.5131  45.2259 15.08858529  1306","2022-005G","51110","6917.824","95.436","541.034","538.343","0"
"GENERATED VIA SPACETRACK.ORG API","18 SPCS","51110","STARLINK-3344","PAYLOAD","U","22005G","2022-05-23 14:00:01","224","15.08798074","0.0001847","53.2223","31.5812","44.7014","66.17","0","999","2074","0.0032677","0.00052042","0","3460097","0 STARLINK-3344","1 51110U 22005G   22143.58334491  .00052042  00000-0  32677-2 0  9996","2 51110  53.2223  31.5812 0001847  44.7014  66.1700 15.08798074 20749","2022-005G","51110","6918.009","95.440","541.151","538.596","0"
"GENERATED VIA SPACETRACK.ORG API","18 SPCS","51110","STARLINK-3344","PAYLOAD","U","22005G","2022-05-23 14:00:01","224","15.08798074","0.0001847","53.2223","31.5812","44.7014","66.17","0","999","130","0.0032677","0.00052042","0","3460386","0 STARLINK-3344","1 51110U 22005G   22143.58334491  .00052042  00000-0  32677-2 0  9996","2 51110  53.2223  31.5812 0001847  44.7014  66.1700 15.08798074  1300","2022-005G","51110","6918.009","95.440","541.151","538.596","0"
"GENERATED VIA SPACETRACK.ORG API","18 SPCS","51110","STARLINK-3344","PAYLOAD","U","22005G","2022-05-23 22:00:01","999584","15.08829445","0.0001987","53.2219","30.0865","42.5365","79.9656","0","999","130","-0.0010985","-0.00017723","0","3460905","0 STARLINK-3344","1 51110U 22005G   22143.91668981 -.00017723  00000-0 -10985-2 0  9994","2 51110  53.2219  30.0865 0001987  42.5365  79.9656 15.08829445  1306","2022-005G","51110","6917.913","95.438","541.152","538.403","0"
"GENERATED VIA SPACETRACK.ORG API","18 SPCS","51110","STARLINK-3344","PAYLOAD","U","22005G","2022-05-24 06:00:02","160","15.08831757","0.0002018","53.2211","28.5905","39.3304","94.7379","0","999","2084","0.00061283","0.00009476","0","3461217","0 STARLINK-3344","1 51110U 22005G   22144.25002315  .00009476  00000-0  61283-3 0  9997","2 51110  53.2211  28.5905 0002018  39.3304  94.7379 15.08831757 20844","2022-005G","51110","6917.906","95.438","541.167","538.375","0"
"GENERATED VIA SPACETRACK.ORG API","18 SPCS","51110","STARLINK-3344","PAYLOAD","U","22005G","2022-05-24 14:00:01","224","15.08815055","0.0001795","53.2209","27.0928","43.5959","101.9998","0","999","130","0.0011928","0.00018733","0","3462176","0 STARLINK-3344","1 51110U 22005G   22144.58334491  .00018733  00000-0  11928-2 0  9992","2 51110  53.2209  27.0928 0001795  43.5959 101.9998 15.08815055  1305","2022-005G","51110","6917.957","95.439","541.063","538.580","0"
"GENERATED VIA SPACETRACK.ORG API","18 SPCS","51110","STARLINK-3344","PAYLOAD","U","22005G","2022-05-24 22:00:00","999936","15.0882877","0.0002113","53.2212","25.5982","45.4441","111.7349","0","999","130","-0.00081064","-0.00013163","0","3462783","0 STARLINK-3344","1 51110U 22005G   22144.91667824 -.00013163  00000-0 -81064-3 0  9991","2 51110  53.2212  25.5982 0002113  45.4441 111.7349 15.08828770  1301","2022-005G","51110","6917.915","95.438","541.241","538.318","0"
"GENERATED VIA SPACETRACK.ORG API","18 SPCS","51110","STARLINK-3344","PAYLOAD","U","22005G","2022-05-25 06:00:00","999648","15.08844117","0.0002139","53.2209","24.1018","43.927","124.8316","0","999","2099","-0.000024963","-0.00000686","0","3463052","0 STARLINK-3344","1 51110U 22005G   22145.25001157 -.00000686  00000-0 -24963-4 0  9992","2 51110  53.2209  24.1018 0002139  43.9270 124.8316 15.08844117 20991","2022-005G","51110","6917.868","95.437","541.213","538.253","0"
"GENERATED VIA SPACETRACK.ORG API","18 SPCS","51110","STARLINK-3344","PAYLOAD","U","22005G","2022-05-25 14:00:01","224","15.08832929","0.0001927","53.2212","22.6043","49.1614","131.1997","0","999","130","0.0030286","0.00048233","0","3463908","0 STARLINK-3344","1 51110U 22005G   22145.58334491  .00048233  00000-0  30286-2 0  9999","2 51110  53.2212  22.6043 0001927  49.1614 131.1997 15.08832929  1308","2022-005G","51110","6917.902","95.438","541.100","538.434","0"
"GENERATED VIA SPACETRACK.ORG API","18 SPCS","51110","STARLINK-3344","PAYLOAD","U","22005G","2022-05-25 21:09:10","829376","15.0883678","0.0002311","53.2226","21.2677","42.2915","317.8255","0","999","1997","0.00012333","0.00001675","0","3464394","0 STARLINK-3344","1 51110U 22005G   22145.88137534  .00001675  00000-0  12333-3 0  9994","2 51110  53.2226  21.2677 0002311  42.2915 317.8255 15.08836780 19978","2022-005G","51110","6917.890","95.438","541.354","538.157","0"
"GENERATED VIA SPACETRACK.ORG API","18 SPCS","51110","STARLINK-3344","PAYLOAD","U","22005G","2022-05-26 08:16:53","123520","15.08833133","0.0002127","53.2216","19.1867","45.4705","314.6461","0","999","2004","0.00013102","0.00001797","0","3465646","0 STARLINK-3344","1 51110U 22005G   22146.34505930  .00001797  00000-0  13102-3 0  9995","2 51110  53.2216  19.1867 0002127  45.4705 314.6461 15.08833133 20044","2022-005G","51110","6917.901","95.438","541.238","538.295","0"
"GENERATED VIA SPACETRACK.ORG API","18 SPCS","51110","STARLINK-3344","PAYLOAD","U","22005G","2022-05-26 14:00:01","224","15.08816623","0.0001728","53.2209","18.1158","45.6919","169.4687","0","999","2119","0.002439","0.00038717","0","3465298","0 STARLINK-3344","1 51110U 22005G   22146.58334491  .00038717  00000-0  24390-2 0  9995","2 51110  53.2209  18.1158 0001728  45.6919 169.4687 15.08816623 21191","2022-005G","51110","6917.952","95.439","541.012","538.621","0"
"GENERATED VIA SPACETRACK.ORG API","18 SPCS","51110","STARLINK-3344","PAYLOAD","U","22005G","2022-05-26 22:35:22","72416","15.08825047","0.0002165","53.2213","16.5075","42.5785","317.5375","0","999","2013","0.000057178","0.00000622","0","3466271","0 STARLINK-3344","1 51110U 22005G   22146.94122769  .00000622  00000-0  57178-4 0  9994","2 51110  53.2213  16.5075 0002165  42.5785 317.5375 15.08825047 20132","2022-005G","51110","6917.926","95.439","541.289","538.293","0"
"GENERATED VIA SPACETRACK.ORG API","18 SPCS","51110","STARLINK-3344","PAYLOAD","U","22005G","2022-05-27 04:00:00","999936","15.08813112","0.0001884","53.2203","15.4993","37.6341","107.7931","0","999","2128","0.0014741","0.00023233","0","3466425","0 STARLINK-3344","1 51110U 22005G   22147.16667824  .00023233  00000-0  14741-2 0  9995","2 51110  53.2203  15.4993 0001884  37.6341 107.7931 15.08813112 21282","2022-005G","51110","6917.963","95.439","541.131","538.524","0"
"GENERATED VIA SPACETRACK.ORG API","18 SPCS","51110","STARLINK-3344","PAYLOAD","U","22005G","2022-05-27 14:00:01","224","15.08816039","0.0001691","53.2204","13.6274","45.4964","204.3965","0","999","130","0.0025521","0.00040536","0","3467585","0 STARLINK-3344","1 51110U 22005G   22147.58334491  .00040536  00000-0  25521-2 0  9995","2 51110  53.2204  13.6274 0001691  45.4964 204.3965 15.08816039  1302","2022-005G","51110","6917.954","95.439","540.988","538.649","0"
"GENERATED VIA SPACETRACK.ORG API","18 SPCS","51110","STARLINK-3344","PAYLOAD","U","22005G","2022-05-27 22:00:01","999584","15.08836009","0.0001886","53.2202","12.133","41.4434","220.0983","0","999","130","0.0003639","0.00005508","0","3468079","0 STARLINK-3344","1 51110U 22005G   22147.91668981  .00005508  00000-0  36390-3 0  9993","2 51110  53.2202  12.1330 0001886  41.4434 220.0983 15.08836009  1305","2022-005G","51110","6917.893","95.438","541.062","538.453","0"
